NORAD_CAT_ID,OBJECT_NAME,OBJECT_TYPE,EPOCH,MEAN_MOTION,ECCENTRICITY,INCLINATION,RA_OF_ASC_NODE,ARG_OF_PERICENTER,MEAN_ANOMALY,BSTAR,MEAN_MOTION_DOT,MEAN_MOTION_DDOT,TLE_LINE0,TLE_LINE1,TLE_LINE2,SEMIMAJOR_AXIS,PERIOD,APOGEE,PERIGEE,DECAYED
55960.0,STARLINK-5938,PAYLOAD,2024-02-29 11:03:15,14.96721188,0.0002741,70.0003,328.3068,271.3685,88.7159,-8.5489e-05,-1.07e-05,0.0,0 STARLINK-5938,1 55960U 23037AY  24060.46060018 -.00001070  00000-0 -85489-4 0  9995,2 55960  70.0003 328.3068 0002741 271.3685  88.7159 14.96721188 53747,6955.172,96.21,578.944,575.131,0.0
55960.0,STARLINK-5938,PAYLOAD,2024-02-29 22:16:55,14.96719026,0.0002815,70.0002,327.1303,270.5718,89.5118,-2.2761e-05,-3.52e-06,0.0,0 STARLINK-5938,1 55960U 23037AY  24060.92842373 -.00000352  00000-0 -22761-4 0  9994,2 55960  70.0002 327.1303 0002815 270.5718  89.5118 14.96719026 53815,6955.179,96.21,579.002,575.086,0.0
55960.0,STARLINK-5938,PAYLOAD,2024-03-01 03:05:38,14.96720187,0.0002831,70.0002,326.6264,269.603,90.4804,-7.7874e-06,-1.81e-06,0.0,0 STARLINK-5938,1 55960U 23037AY  24061.12891791 -.00000181  00000-0 -77874-5 0  9991,2 55960  70.0002 326.6264 0002831 269.6030  90.4804 14.96720187 54183,6955.176,96.21,579.01,575.072,0.0
55960.0,STARLINK-5938,PAYLOAD,2024-03-01 11:06:50,14.96711473,0.0002804,70.0001,325.7855,264.1503,95.9335,5.149e-05,4.98e-06,0.0,0 STARLINK-5938,1 55960U 23037AY  24061.46308126  .00000498  00000-0  51490-4 0  9997,2 55960  70.0001 325.7855 0002804 264.1503  95.9335 14.96711473 53897,6955.203,96.211,579.018,575.117,0.0
55960.0,STARLINK-5938,PAYLOAD,2024-03-01 20:44:16,14.96711609,0.0002915,70.0,324.7769,271.1557,88.9267,7.7861e-06,-2e-08,0.0,0 STARLINK-5938,1 55960U 23037AY  24061.86407428 -.00000002  00000-0  77861-5 0  9999,2 55960  70.0000 324.7769 0002915 271.1557  88.9267 14.96711609 54291,6955.202,96.211,579.095,575.04,0.0
55960.0,STARLINK-5938,PAYLOAD,2024-03-01 22:20:30,14.96711467,0.0002918,69.9999,324.6088,271.1292,88.9532,6.0507e-06,-2.2e-07,0.0,0 STARLINK-5938,1 55960U 23037AY  24061.93090652 -.00000022  00000-0  60507-5 0  9995,2 55960  69.9999 324.6088 0002918 271.1292  88.9532 14.96711467 53967,6955.203,96.211,579.097,575.038,0.0
55960.0,STARLINK-5938,PAYLOAD,2024-03-02 03:09:12,14.9671659,0.0002906,69.9998,324.1043,270.7238,89.3588,2.5313e-05,1.98e-06,0.0,0 STARLINK-5938,1 55960U 23037AY  24062.13139862  .00000198  00000-0  25313-4 0  9993,2 55960  69.9998 324.1043 0002906 270.7238  89.3588 14.96716590 53995,6955.187,96.211,579.073,575.031,0.0
55960.0,STARLINK-5938,PAYLOAD,2024-03-02 22:24:04,14.96715306,0.0002895,69.9997,322.0873,270.6618,89.4208,-2.2165e-06,-1.17e-06,0.0,0 STARLINK-5938,1 55960U 23037AY  24062.93338369 -.00000117  00000-0 -22165-5 0  9990,2 55960  69.9997 322.0873 0002895 270.6618  89.4208 14.96715306 54119,6955.191,96.211,579.069,575.042,0.0
55960.0,STARLINK-5938,PAYLOAD,2024-03-03 03:12:46,14.96719303,0.000289,69.9996,321.5827,270.1413,89.9414,-4.1116e-06,-1.39e-06,0.0,0 STARLINK-5938,1 55960U 23037AY  24063.13387681 -.00000139  00000-0 -41116-5 0  9995,2 55960  69.9996 321.5827 0002890 270.1413  89.9414 14.96719303 54489,6955.178,96.21,579.053,575.033,0.0
55960.0,STARLINK-5938,PAYLOAD,2024-03-03 19:15:09,14.96715907,0.0002759,69.9997,319.9014,271.2685,88.8157,2.0057e-05,1.38e-06,0.0,0 STARLINK-5938,1 55960U 23037AY  24063.80219787  .00000138  00000-0  20057-4 0  9997,2 55960  69.9997 319.9014 0002759 271.2685  88.8157 14.96715907 54248,6955.189,96.211,578.973,575.135,0.0
55960.0,STARLINK-5938,PAYLOAD,2024-03-04 03:16:20,14.96723215,0.0002674,70.0,319.0616,270.9874,89.0978,0.00010089,1.064e-05,0.0,0 STARLINK-5938,1 55960U 23037AY  24064.13635036  .00001064  00000-0  10089-3 0  9995,2 55960  70.0000 319.0616 0002674 270.9874  89.0978 14.96723215 54635,6955.166,96.21,578.891,575.171,0.0
55960.0,STARLINK-5938,PAYLOAD,2024-03-04 09:41:17,14.96721576,0.0002578,70.0003,318.3889,275.6341,84.4523,4.648e-05,4.41e-06,0.0,0 STARLINK-5938,1 55960U 23037AY  24064.40368019  .00000441  00000-0  46480-4 0  9992,2 55960  70.0003 318.3889 0002578 275.6341  84.4523 14.96721576 54336,6955.171,96.21,578.829,575.243,0.0
55960.0,STARLINK-5938,PAYLOAD,2024-03-04 20:54:57,14.96718844,0.0002672,70.0001,317.2127,273.0859,86.9994,3.0877e-05,2.62e-06,0.0,0 STARLINK-5938,1 55960U 23037AY  24064.87150410  .00000262  00000-0  30877-4 0  9991,2 55960  70.0001 317.2127 0002672 273.0859  86.9994 14.96718844 54746,6955.18,96.21,578.903,575.186,0.0
55960.0,STARLINK-5938,PAYLOAD,2024-03-05 03:19:54,14.96720626,0.0002653,70.0002,316.5405,273.1065,86.9789,6.2678e-05,6.26e-06,0.0,0 STARLINK-5938,1 55960U 23037AY  24065.13882925  .00000626  00000-0  62678-4 0  9992,2 55960  70.0002 316.5405 0002653 273.1065  86.9789 14.96720626 54447,6955.174,96.21,578.884,575.194,0.0
55960.0,STARLINK-5938,PAYLOAD,2024-03-05 20:58:33,14.96709539,0.0002897,70.0001,314.6926,266.7096,93.3731,-0.00015855,-1.906e-05,0.0,0 STARLINK-5938,1 55960U 23037AY  24065.87399404 -.00001906  00000-0 -15855-3 0  9996,2 55960  70.0001 314.6926 0002897 266.7096  93.3731 14.96709539 54893,6955.209,96.211,579.088,575.059,0.0
55960.0,STARLINK-5938,PAYLOAD,2024-03-06 03:23:30,14.96711863,0.000286,70.0,314.0202,266.7404,93.3427,-0.00011993,-1.464e-05,0.0,0 STARLINK-5938,1 55960U 23037AY  24066.14132013 -.00001464  00000-0 -11993-3 0  9996,2 55960  70.0000 314.0202 0002860 266.7404  93.3427 14.96711863 54598,6955.201,96.211,579.056,575.077,0.0
55960.0,STARLINK-5938,PAYLOAD,2024-03-07 01:50:49,14.96713405,0.0002877,69.9998,311.6667,259.864,100.2193,-5.2378e-05,-6.91e-06,0.0,0 STARLINK-5938,1 55960U 23037AY  24067.07696687 -.00000691  00000-0 -52378-4 0  9995,2 55960  69.9998 311.6667 0002877 259.8640 100.2193 14.96713405 55078,6955.197,96.211,579.063,575.061,0.0
55960.0,STARLINK-5938,PAYLOAD,2024-03-07 09:52:01,14.96716482,0.0003031,69.9991,310.8252,268.5931,91.488,-5.5472e-05,-7.26e-06,0.0,0 STARLINK-5938,1 55960U 23037AY  24067.41112538 -.00000726  00000-0 -55472-4 0  9998,2 55960  69.9991 310.8252 0003031 268.5931  91.4880 14.96716482 54784,6955.187,96.211,579.16,574.944,0.0
55960.0,STARLINK-5938,PAYLOAD,2024-03-08 01:54:23,14.96714118,0.0003092,69.999,309.1439,268.1327,91.9477,0.00012627,1.354e-05,0.0,0 STARLINK-5938,1 55960U 23037AY  24068.07944403  .00001354  00000-0  12627-3 0  9995,2 55960  69.9990 309.1439 0003092 268.1327  91.9477 14.96714118 55224,6955.194,96.211,579.21,574.909,0.0
55960.0,STARLINK-5938,PAYLOAD,2024-03-08 09:55:35,14.96715056,0.00031,69.9989,308.3037,268.1596,91.9208,8.0222e-05,8.27e-06,0.0,0 STARLINK-5938,1 55960U 23037AY  24068.41360472  .00000827  00000-0  80222-4 0  9992,2 55960  69.9989 308.3037 0003100 268.1596  91.9208 14.96715056 54936,6955.191,96.211,579.213,574.9,0.0
55960.0,STARLINK-5938,PAYLOAD,2024-03-08 22:45:29,14.96715598,0.0003082,69.9989,306.9594,269.3082,90.7723,0.00012641,1.356e-05,0.0,0 STARLINK-5938,1 55960U 23037AY  24068.94825867  .00001356  00000-0  12641-3 0  9991,2 55960  69.9989 306.9594 0003082 269.3082  90.7723 14.96715598 55010,6955.19,96.211,579.198,574.911,0.0
55960.0,STARLINK-5938,PAYLOAD,2024-03-09 01:57:57,14.96715055,0.0002962,69.9988,306.6231,267.5967,92.4852,0.00021256,2.342e-05,0.0,0 STARLINK-5938,1 55960U 23037AY  24069.08192075  .00002342  00000-0  21256-3 0  9993,2 55960  69.9988 306.6231 0002962 267.5967  92.4852 14.96715055 55371,6955.191,96.211,579.117,574.996,0.0
55960.0,STARLINK-5938,PAYLOAD,2024-03-10 02:01:32,14.96716398,0.0002889,69.9991,304.1017,270.656,89.4267,-1.4409e-05,-2.57e-06,0.0,0 STARLINK-5938,1 55960U 23037AY  24070.08440370 -.00000257  00000-0 -14409-4 0  9997,2 55960  69.9991 304.1017 0002889 270.6560  89.4267 14.96716398 55526,6955.187,96.211,579.062,575.043,0.0
55960.0,STARLINK-5938,PAYLOAD,2024-03-10 14:51:26,14.9671677,0.0002823,69.9993,302.757,270.7336,89.3499,-8.0732e-05,-1.016e-05,0.0,0 STARLINK-5938,1 55960U 23037AY  24070.61906080 -.00001016  00000-0 -80732-4 0  9997,2 55960  69.9993 302.7570 0002823 270.7336  89.3499 14.96716770 55267,6955.186,96.211,579.015,575.088,0.0
55960.0,STARLINK-5938,PAYLOAD,2024-03-10 22:52:38,14.96724308,0.0002814,69.9994,301.9165,267.1125,92.9711,-0.00022191,-2.631e-05,0.0,0 STARLINK-5938,1 55960U 23037AY  24070.95322024 -.00002631  00000-0 -22191-3 0  9992,2 55960  69.9994 301.9165 0002814 267.1125  92.9711 14.96724308 55314,6955.163,96.21,578.985,575.071,0.0
55960.0,STARLINK-5938,PAYLOAD,2024-03-11 02:05:06,14.96739783,0.0003,69.9993,301.5802,266.3821,93.6994,-0.0004574,-5.326e-05,0.0,0 STARLINK-5938,1 55960U 23037AY  24071.08688067 -.00005326  00000-0 -45740-3 0  9998,2 55960  69.9993 301.5802 0003000 266.3821  93.6994 14.96739783 55672,6955.115,96.209,579.066,574.893,0.0
55960.0,STARLINK-5938,PAYLOAD,2024-03-11 14:55:00,14.96713924,0.0002889,69.9992,300.2346,266.2681,93.8147,5.2257e-07,-8.6e-07,0.0,0 STARLINK-5938,1 55960U 23037AY  24071.62153920 -.00000086  00000-0  52257-6 0  9994,2 55960  69.9992 300.2346 0002889 266.2681  93.8147 14.96713924 55410,6955.195,96.211,579.069,575.051,0.0
55960.0,STARLINK-5938,PAYLOAD,2024-03-11 21:19:58,14.96715273,0.0003082,69.9987,299.5618,264.0247,96.056,-2.1746e-05,-3.41e-06,0.0,0 STARLINK-5938,1 55960U 23037AY  24071.88886660 -.00000341  00000-0 -21746-4 0  9998,2 55960  69.9987 299.5618 0003082 264.0247  96.0560 14.96715273 55790,6955.191,96.211,579.199,574.912,0.0
55960.0,STARLINK-5938,PAYLOAD,2024-03-12 21:23:32,14.96713164,0.0002941,69.9986,297.041,267.467,92.6152,2.2324e-05,1.64e-06,0.0,0 STARLINK-5938,1 55960U 23037AY  24072.89134760  .00000164  00000-0  22324-4 0  9991,2 55960  69.9986 297.0410 0002941 267.4670  92.6152 14.96713164 55608,6955.197,96.211,579.108,575.017,0.0
55960.0,STARLINK-5938,PAYLOAD,2024-03-13 00:36:00,14.96714326,0.0003011,69.9979,296.7049,268.7443,91.337,3.3537e-05,2.92e-06,0.0,0 STARLINK-5938,1 55960U 23037AY  24073.02501038  .00000292  00000-0  33537-4 0  9993,2 55960  69.9979 296.7049 0003011 268.7443  91.3370 14.96714326 55963,6955.194,96.211,579.153,574.965,0.0
